<?xml version="1.0" encoding="UTF-8"?>
<gpx xmlns:xsi="http://www.w3.org/2001/XMLSchema-instance" xmlns="http://www.topografix.com/GPX/1/1" xsi:schemaLocation="http://www.topografix.com/GPX/1/1 http://www.topografix.com/GPX/1/1/gpx.xsd" version="1.1" creator="Open GPX Tracker for iOS">
	<trk>
		<trkseg>
			<trkpt lat="59.93529651319602" lon="30.311203943593718">
				<ele>16.6448974609375</ele>
				<time>2023-08-24T16:44:08Z</time>
			</trkpt>
			<trkpt lat="59.93543259339401" lon="30.31102423558972">
				<ele>13.28143310546875</ele>
				<time>2023-08-24T16:44:09Z</time>
			</trkpt>
			<trkpt lat="59.93545811628917" lon="30.311077712131954">
				<ele>10.1708984375</ele>
				<time>2023-08-24T16:44:10Z</time>
			</trkpt>
			<trkpt lat="59.93548057978967" lon="30.31107461082778">
				<ele>8.01751708984375</ele>
				<time>2023-08-24T16:44:12Z</time>
			</trkpt>
			<trkpt lat="59.93550689896563" lon="30.31105214732728">
				<ele>2.3248291015625</ele>
				<time>2023-08-24T16:44:14Z</time>
			</trkpt>
			<trkpt lat="59.93553644517431" lon="30.311052734060503">
				<ele>-1.51763916015625</ele>
				<time>2023-08-24T16:44:16Z</time>
			</trkpt>
			<trkpt lat="59.935557902846426" lon="30.311043681605078">
				<ele>-0.92034912109375</ele>
				<time>2023-08-24T16:44:17Z</time>
			</trkpt>
			<trkpt lat="59.93558166554192" lon="30.31103638934932">
				<ele>-1.4595947265625</ele>
				<time>2023-08-24T16:44:18Z</time>
			</trkpt>
			<trkpt lat="59.93560362612823" lon="30.311055835364677">
				<ele>-3.771728515625</ele>
				<time>2023-08-24T16:44:19Z</time>
			</trkpt>
			<trkpt lat="59.93563238467023" lon="30.311053740392364">
				<ele>-4.600082070566714</ele>
				<time>2023-08-24T16:44:21Z</time>
			</trkpt>
			<trkpt lat="59.935650521738786" lon="30.31106512667618">
				<ele>-5.650773682631552</ele>
				<time>2023-08-24T16:44:22Z</time>
			</trkpt>
			<trkpt lat="59.93567213802335" lon="30.31106782912249">
				<ele>-5.964322785846889</ele>
				<time>2023-08-24T16:44:24Z</time>
			</trkpt>
			<trkpt lat="59.935699766862946" lon="30.31107287013279">
				<ele>-5.970000960864127</ele>
				<time>2023-08-24T16:44:26Z</time>
			</trkpt>
			<trkpt lat="59.93571815841245" lon="30.31109413830435">
				<ele>-6.012306007556617</ele>
				<time>2023-08-24T16:44:27Z</time>
			</trkpt>
			<trkpt lat="59.93573889669393" lon="30.311108493316354">
				<ele>-6.542705323547125</ele>
				<time>2023-08-24T16:44:28Z</time>
			</trkpt>
			<trkpt lat="59.93575787604323" lon="30.311119692813897">
				<ele>-6.186506066471338</ele>
				<time>2023-08-24T16:44:29Z</time>
			</trkpt>
			<trkpt lat="59.93579123545679" lon="30.311118222222973">
				<ele>-5.150434281677008</ele>
				<time>2023-08-24T16:44:31Z</time>
			</trkpt>
			<trkpt lat="59.93582408729751" lon="30.311087403783855">
				<ele>-3.069850710220635</ele>
				<time>2023-08-24T16:44:33Z</time>
			</trkpt>
			<trkpt lat="59.93585055723593" lon="30.31107599548308">
				<ele>-1.9622896639630198</ele>
				<time>2023-08-24T16:44:35Z</time>
			</trkpt>
			<trkpt lat="59.935870250225186" lon="30.31108262381573">
				<ele>-1.209272176027298</ele>
				<time>2023-08-24T16:44:36Z</time>
			</trkpt>
			<trkpt lat="59.935888689877274" lon="30.31108734307314">
				<ele>-0.3390767863020301</ele>
				<time>2023-08-24T16:44:37Z</time>
			</trkpt>
			<trkpt lat="59.935917040899824" lon="30.31108177188597">
				<ele>0.3789693880826235</ele>
				<time>2023-08-24T16:44:39Z</time>
			</trkpt>
			<trkpt lat="59.93592422495184" lon="30.311064574010327">
				<ele>-2.6316715218126774</ele>
				<time>2023-08-24T16:44:41Z</time>
			</trkpt>
			<trkpt lat="59.935951112072665" lon="30.311052009797397">
				<ele>-2.2340642400085926</ele>
				<time>2023-08-24T16:44:43Z</time>
			</trkpt>
			<trkpt lat="59.9359640396104" lon="30.31099158910707">
				<ele>-2.3972951034083962</ele>
				<time>2023-08-24T16:44:44Z</time>
			</trkpt>
			<trkpt lat="59.93599063201976" lon="30.310966960198193">
				<ele>-3.038919471204281</ele>
				<time>2023-08-24T16:44:46Z</time>
			</trkpt>
			<trkpt lat="59.9360119884808" lon="30.310934931086337">
				<ele>-2.3228962747380137</ele>
				<time>2023-08-24T16:44:48Z</time>
			</trkpt>
			<trkpt lat="59.93602967455968" lon="30.310942879702374">
				<ele>-1.4571436531841755</ele>
				<time>2023-08-24T16:44:49Z</time>
			</trkpt>
			<trkpt lat="59.93604762832768" lon="30.310927036099397">
				<ele>-1.715494342148304</ele>
				<time>2023-08-24T16:44:50Z</time>
			</trkpt>
			<trkpt lat="59.93607650732227" lon="30.31094558817777">
				<ele>-1.9842943213880062</ele>
				<time>2023-08-24T16:44:52Z</time>
			</trkpt>
			<trkpt lat="59.93607804521653" lon="30.310898889744294">
				<ele>-2.5639438340440392</ele>
				<time>2023-08-24T16:44:53Z</time>
			</trkpt>
			<trkpt lat="59.93609636448334" lon="30.310809307389277">
				<ele>-4.400013015605509</ele>
				<time>2023-08-24T16:44:55Z</time>
			</trkpt>
			<trkpt lat="59.9361082252139" lon="30.310763191084067">
				<ele>-4.3602184588089585</ele>
				<time>2023-08-24T16:44:57Z</time>
			</trkpt>
			<trkpt lat="59.936136394654405" lon="30.3107392511331">
				<ele>-4.548155549913645</ele>
				<time>2023-08-24T16:44:59Z</time>
			</trkpt>
			<trkpt lat="59.93615285834384" lon="30.3107098091992">
				<ele>-4.2584205670282245</ele>
				<time>2023-08-24T16:45:01Z</time>
			</trkpt>
			<trkpt lat="59.93617281647379" lon="30.31065081039384">
				<ele>-4.286234702914953</ele>
				<time>2023-08-24T16:45:03Z</time>
			</trkpt>
			<trkpt lat="59.936196981910136" lon="30.310618728332944">
				<ele>-3.5934875179082155</ele>
				<time>2023-08-24T16:45:05Z</time>
			</trkpt>
			<trkpt lat="59.93622208834381" lon="30.310613939337262">
				<ele>-3.1432167030870914</ele>
				<time>2023-08-24T16:45:08Z</time>
			</trkpt>
			<trkpt lat="59.93624847620183" lon="30.31061229416412">
				<ele>-2.510059922002256</ele>
				<time>2023-08-24T16:45:10Z</time>
			</trkpt>
			<trkpt lat="59.93627527635224" lon="30.310570885391808">
				<ele>-2.321859142743051</ele>
				<time>2023-08-24T16:45:12Z</time>
			</trkpt>
			<trkpt lat="59.93629710258492" lon="30.3105321342064">
				<ele>-2.41262495983392</ele>
				<time>2023-08-24T16:45:14Z</time>
			</trkpt>
			<trkpt lat="59.93632832307035" lon="30.310514531397104">
				<ele>-2.009211827069521</ele>
				<time>2023-08-24T16:45:16Z</time>
			</trkpt>
			<trkpt lat="59.93635721423192" lon="30.31050348004538">
				<ele>-2.1101051876321435</ele>
				<time>2023-08-24T16:45:18Z</time>
			</trkpt>
			<trkpt lat="59.93638944043553" lon="30.3104787918318">
				<ele>-1.8092368124052882</ele>
				<time>2023-08-24T16:45:20Z</time>
			</trkpt>
			<trkpt lat="59.93640372278697" lon="30.31044994230276">
				<ele>-2.409862242639065</ele>
				<time>2023-08-24T16:45:21Z</time>
			</trkpt>
			<trkpt lat="59.93643172503361" lon="30.31051278750273">
				<ele>-3.2640881137922406</ele>
				<time>2023-08-24T16:45:22Z</time>
			</trkpt>
			<trkpt lat="59.93647698887587" lon="30.310548000216706">
				<ele>0.17583372630178928</ele>
				<time>2023-08-24T16:45:24Z</time>
			</trkpt>
			<trkpt lat="59.93646316182077" lon="30.310581372513376">
				<ele>-6.016873825341463</ele>
				<time>2023-08-24T16:45:27Z</time>
			</trkpt>
			<trkpt lat="59.93644287143007" lon="30.31054949382956">
				<ele>-3.8556529534980655</ele>
				<time>2023-08-24T16:45:28Z</time>
			</trkpt>
			<trkpt lat="59.93643030569067" lon="30.31051237831627">
				<ele>-3.1047499449923635</ele>
				<time>2023-08-24T16:45:29Z</time>
			</trkpt>
			<trkpt lat="59.93641871545458" lon="30.31046346896341">
				<ele>-4.146359160542488</ele>
				<time>2023-08-24T16:45:31Z</time>
			</trkpt>
			<trkpt lat="59.93641863259638" lon="30.310514379562306">
				<ele>-5.582423718646169</ele>
				<time>2023-08-24T16:45:32Z</time>
			</trkpt>
			<trkpt lat="59.936400957788344" lon="30.31045329003859">
				<ele>-6.411501971073449</ele>
				<time>2023-08-24T16:45:35Z</time>
			</trkpt>
			<trkpt lat="59.936384911428895" lon="30.310381453906693">
				<ele>-5.540088892914355</ele>
				<time>2023-08-24T16:45:37Z</time>
			</trkpt>
			<trkpt lat="59.93636481785138" lon="30.310323277619112">
				<ele>-6.038141109980643</ele>
				<time>2023-08-24T16:45:39Z</time>
			</trkpt>
			<trkpt lat="59.93634285390378" lon="30.310268091787382">
				<ele>-6.451988582499325</ele>
				<time>2023-08-24T16:45:41Z</time>
			</trkpt>
			<trkpt lat="59.93632681092747" lon="30.310212120149718">
				<ele>-6.750823205336928</ele>
				<time>2023-08-24T16:45:43Z</time>
			</trkpt>
			<trkpt lat="59.936320818795636" lon="30.310176890973597">
				<ele>-6.892173208296299</ele>
				<time>2023-08-24T16:45:44Z</time>
			</trkpt>
			<trkpt lat="59.936322116237925" lon="30.310127329687408">
				<ele>-5.824534618295729</ele>
				<time>2023-08-24T16:45:45Z</time>
			</trkpt>
			<trkpt lat="59.93631947567369" lon="30.310090103347733">
				<ele>-4.93946423754096</ele>
				<time>2023-08-24T16:45:46Z</time>
			</trkpt>
			<trkpt lat="59.936303518382424" lon="30.310042022041763">
				<ele>-4.230417722836137</ele>
				<time>2023-08-24T16:45:48Z</time>
			</trkpt>
			<trkpt lat="59.93629154726824" lon="30.309990351846007">
				<ele>-3.5946203051134944</ele>
				<time>2023-08-24T16:45:51Z</time>
			</trkpt>
			<trkpt lat="59.93630886983163" lon="30.309975201824457">
				<ele>-3.189391798339784</ele>
				<time>2023-08-24T16:45:56Z</time>
			</trkpt>
			<trkpt lat="59.93632783792788" lon="30.309919680071975">
				<ele>-1.060986753553152</ele>
				<time>2023-08-24T16:46:14Z</time>
			</trkpt>
			<trkpt lat="59.936351527748776" lon="30.309889967022674">
				<ele>-1.2492801891639829</ele>
				<time>2023-08-24T16:46:17Z</time>
			</trkpt>
			<trkpt lat="59.93636641576173" lon="30.309860201331837">
				<ele>-1.6270110365003347</ele>
				<time>2023-08-24T16:46:18Z</time>
			</trkpt>
			<trkpt lat="59.936387232286556" lon="30.309814240573942">
				<ele>-2.0117716854438186</ele>
				<time>2023-08-24T16:46:20Z</time>
			</trkpt>
			<trkpt lat="59.936409117039574" lon="30.309783907310756">
				<ele>-1.895200644619763</ele>
				<time>2023-08-24T16:46:22Z</time>
			</trkpt>
			<trkpt lat="59.93643192322954" lon="30.309750495840206">
				<ele>-1.0610998896881938</ele>
				<time>2023-08-24T16:46:23Z</time>
			</trkpt>
			<trkpt lat="59.93645048006985" lon="30.30974937897362">
				<ele>-1.0555700743570924</ele>
				<time>2023-08-24T16:46:25Z</time>
			</trkpt>
			<trkpt lat="59.936473693858474" lon="30.309738403995592">
				<ele>-0.10461798403412104</ele>
				<time>2023-08-24T16:46:26Z</time>
			</trkpt>
			<trkpt lat="59.93649149214072" lon="30.309746786504835">
				<ele>0.03485215920954943</ele>
				<time>2023-08-24T16:46:27Z</time>
			</trkpt>
			<trkpt lat="59.9365243575492" lon="30.309760833669724">
				<ele>-0.8236173000186682</ele>
				<time>2023-08-24T16:46:30Z</time>
			</trkpt>
			<trkpt lat="59.93654286039257" lon="30.309781515519038">
				<ele>-1.269848708063364</ele>
				<time>2023-08-24T16:46:32Z</time>
			</trkpt>
			<trkpt lat="59.93656162910332" lon="30.30979209596966">
				<ele>-2.350214723497629</ele>
				<time>2023-08-24T16:46:34Z</time>
			</trkpt>
			<trkpt lat="59.93657505194596" lon="30.30988330887213">
				<ele>-0.9074553987011313</ele>
				<time>2023-08-24T16:46:35Z</time>
			</trkpt>
			<trkpt lat="59.93658268675344" lon="30.309922092658834">
				<ele>0.5049866437911987</ele>
				<time>2023-08-24T16:46:36Z</time>
			</trkpt>
			<trkpt lat="59.936593104361734" lon="30.309958841523457">
				<ele>1.5407534642145038</ele>
				<time>2023-08-24T16:46:37Z</time>
			</trkpt>
			<trkpt lat="59.9366184774932" lon="30.309956939097198">
				<ele>2.999129343777895</ele>
				<time>2023-08-24T16:46:39Z</time>
			</trkpt>
			<trkpt lat="59.93664036355475" lon="30.309940359147664">
				<ele>2.629101164638996</ele>
				<time>2023-08-24T16:46:42Z</time>
			</trkpt>
			<trkpt lat="59.93665167141039" lon="30.30991001669803">
				<ele>3.369736209511757</ele>
				<time>2023-08-24T16:46:43Z</time>
			</trkpt>
			<trkpt lat="59.936685407964134" lon="30.309875184770334">
				<ele>4.387951114214957</ele>
				<time>2023-08-24T16:46:45Z</time>
			</trkpt>
			<trkpt lat="59.936707084204464" lon="30.30983419041078">
				<ele>5.883487216196954</ele>
				<time>2023-08-24T16:46:47Z</time>
			</trkpt>
			<trkpt lat="59.93672370027566" lon="30.309819525144967">
				<ele>6.433588371612132</ele>
				<time>2023-08-24T16:46:48Z</time>
			</trkpt>
			<trkpt lat="59.93675879312944" lon="30.309837588860795">
				<ele>6.583802197128534</ele>
				<time>2023-08-24T16:46:50Z</time>
			</trkpt>
			<trkpt lat="59.93678659536245" lon="30.309842337589707">
				<ele>7.843672561459243</ele>
				<time>2023-08-24T16:46:52Z</time>
			</trkpt>
			<trkpt lat="59.936817100989465" lon="30.30986471474271">
				<ele>8.917166080325842</ele>
				<time>2023-08-24T16:46:54Z</time>
			</trkpt>
			<trkpt lat="59.936847632800614" lon="30.30985489760494">
				<ele>9.533143786713481</ele>
				<time>2023-08-24T16:46:57Z</time>
			</trkpt>
			<trkpt lat="59.93687727405886" lon="30.309837131047374">
				<ele>9.878501703031361</ele>
				<time>2023-08-24T16:46:59Z</time>
			</trkpt>
			<trkpt lat="59.936909603293316" lon="30.30981400826878">
				<ele>11.329776998609304</ele>
				<time>2023-08-24T16:47:01Z</time>
			</trkpt>
			<trkpt lat="59.93694198384972" lon="30.309792125295257">
				<ele>10.634971227496862</ele>
				<time>2023-08-24T16:47:03Z</time>
			</trkpt>
			<trkpt lat="59.93695878679707" lon="30.30977952411348">
				<ele>10.548527592793107</ele>
				<time>2023-08-24T16:47:04Z</time>
			</trkpt>
			<trkpt lat="59.93698491608254" lon="30.309746140076996">
				<ele>10.716574508696795</ele>
				<time>2023-08-24T16:47:06Z</time>
			</trkpt>
			<trkpt lat="59.93700988273031" lon="30.309690373824942">
				<ele>10.530307931825519</ele>
				<time>2023-08-24T16:47:08Z</time>
			</trkpt>
			<trkpt lat="59.93702277900095" lon="30.309658697213926">
				<ele>10.936632942408323</ele>
				<time>2023-08-24T16:47:09Z</time>
			</trkpt>
			<trkpt lat="59.937030958213874" lon="30.309624439315527">
				<ele>10.392140815965831</ele>
				<time>2023-08-24T16:47:10Z</time>
			</trkpt>
			<trkpt lat="59.93705014441529" lon="30.30957548003654">
				<ele>10.85059948824346</ele>
				<time>2023-08-24T16:47:12Z</time>
			</trkpt>
			<trkpt lat="59.93706344348277" lon="30.30953082680072">
				<ele>7.584593506529927</ele>
				<time>2023-08-24T16:47:18Z</time>
			</trkpt>
			<trkpt lat="59.93707936663886" lon="30.309481334058194">
				<ele>7.648729672655463</ele>
				<time>2023-08-24T16:47:20Z</time>
			</trkpt>
			<trkpt lat="59.93708474792553" lon="30.309446975152127">
				<ele>7.150071226991713</ele>
				<time>2023-08-24T16:47:21Z</time>
			</trkpt>
			<trkpt lat="59.9370908123405" lon="30.309412806889828">
				<ele>6.4872498121112585</ele>
				<time>2023-08-24T16:47:22Z</time>
			</trkpt>
			<trkpt lat="59.93709956626891" lon="30.309353565799213">
				<ele>4.873240883462131</ele>
				<time>2023-08-24T16:47:24Z</time>
			</trkpt>
			<trkpt lat="59.93709700218242" lon="30.309317622764368">
				<ele>5.184647309593856</ele>
				<time>2023-08-24T16:47:25Z</time>
			</trkpt>
			<trkpt lat="59.93710491770954" lon="30.309284928654485">
				<ele>3.7313543502241373</ele>
				<time>2023-08-24T16:47:26Z</time>
			</trkpt>
			<trkpt lat="59.9371100456673" lon="30.309228673159815">
				<ele>3.2107358099892735</ele>
				<time>2023-08-24T16:47:28Z</time>
			</trkpt>
			<trkpt lat="59.937125018581796" lon="30.30919093573318">
				<ele>2.624209215864539</ele>
				<time>2023-08-24T16:47:30Z</time>
			</trkpt>
			<trkpt lat="59.93714289566188" lon="30.30915615417704">
				<ele>2.7569688335061073</ele>
				<time>2023-08-24T16:47:32Z</time>
			</trkpt>
			<trkpt lat="59.93715357443497" lon="30.30911808149045">
				<ele>3.636883035302162</ele>
				<time>2023-08-24T16:47:34Z</time>
			</trkpt>
			<trkpt lat="59.937171809774355" lon="30.309087502593616">
				<ele>3.9004489853978157</ele>
				<time>2023-08-24T16:47:36Z</time>
			</trkpt>
			<trkpt lat="59.93720563261046" lon="30.30907403460208">
				<ele>3.6562595553696156</ele>
				<time>2023-08-24T16:47:38Z</time>
			</trkpt>
			<trkpt lat="59.93722341131905" lon="30.309060930161483">
				<ele>3.1195949856191874</ele>
				<time>2023-08-24T16:47:39Z</time>
			</trkpt>
			<trkpt lat="59.9372504667039" lon="30.309124385746852">
				<ele>1.7047966048121452</ele>
				<time>2023-08-24T16:47:40Z</time>
			</trkpt>
			<trkpt lat="59.93726185232767" lon="30.309172940400924">
				<ele>3.1434331722557545</ele>
				<time>2023-08-24T16:47:41Z</time>
			</trkpt>
			<trkpt lat="59.93728112499617" lon="30.30920378689618">
				<ele>2.8654955606907606</ele>
				<time>2023-08-24T16:47:43Z</time>
			</trkpt>
			<trkpt lat="59.93730070161366" lon="30.309227951762747">
				<ele>2.263410304673016</ele>
				<time>2023-08-24T16:47:45Z</time>
			</trkpt>
			<trkpt lat="59.937317768562416" lon="30.30924503228468">
				<ele>3.0410222420468926</ele>
				<time>2023-08-24T16:47:46Z</time>
			</trkpt>
			<trkpt lat="59.93734146371422" lon="30.309275510379234">
				<ele>2.0551600847393274</ele>
				<time>2023-08-24T16:47:48Z</time>
			</trkpt>
			<trkpt lat="59.93736742396877" lon="30.309317645885635">
				<ele>3.6158530842512846</ele>
				<time>2023-08-24T16:47:50Z</time>
			</trkpt>
			<trkpt lat="59.93739060942197" lon="30.309343856685267">
				<ele>3.764784906990826</ele>
				<time>2023-08-24T16:47:52Z</time>
			</trkpt>
			<trkpt lat="59.93740778214206" lon="30.309384009386484">
				<ele>3.9492574129253626</ele>
				<time>2023-08-24T16:47:54Z</time>
			</trkpt>
			<trkpt lat="59.937405954462974" lon="30.309439482680773">
				<ele>4.88525362405926</ele>
				<time>2023-08-24T16:47:55Z</time>
			</trkpt>
			<trkpt lat="59.93739706159131" lon="30.30947846716629">
				<ele>3.091580747626722</ele>
				<time>2023-08-24T16:47:56Z</time>
			</trkpt>
			<trkpt lat="59.937415735565466" lon="30.309532530066452">
				<ele>2.747600184753537</ele>
				<time>2023-08-24T16:47:58Z</time>
			</trkpt>
			<trkpt lat="59.937422012777" lon="30.309567624293848">
				<ele>3.416803960688412</ele>
				<time>2023-08-24T16:47:59Z</time>
			</trkpt>
			<trkpt lat="59.937441705683696" lon="30.309608054933452">
				<ele>2.723803204484284</ele>
				<time>2023-08-24T16:48:01Z</time>
			</trkpt>
			<trkpt lat="59.93745480421582" lon="30.309663895398323">
				<ele>2.8784169238060713</ele>
				<time>2023-08-24T16:48:03Z</time>
			</trkpt>
			<trkpt lat="59.93748373243577" lon="30.309682571458676">
				<ele>2.7281927345320582</ele>
				<time>2023-08-24T16:48:05Z</time>
			</trkpt>
			<trkpt lat="59.937505592545754" lon="30.30971219660713">
				<ele>3.113674812950194</ele>
				<time>2023-08-24T16:48:07Z</time>
			</trkpt>
			<trkpt lat="59.93752993184709" lon="30.3097408481338">
				<ele>3.746060686185956</ele>
				<time>2023-08-24T16:48:09Z</time>
			</trkpt>
			<trkpt lat="59.937551299744044" lon="30.309786287783822">
				<ele>3.667666781693697</ele>
				<time>2023-08-24T16:48:11Z</time>
			</trkpt>
			<trkpt lat="59.937567783284244" lon="30.309839949138556">
				<ele>3.958966288715601</ele>
				<time>2023-08-24T16:48:13Z</time>
			</trkpt>
			<trkpt lat="59.93758389078123" lon="30.309883173452064">
				<ele>5.027973251417279</ele>
				<time>2023-08-24T16:48:15Z</time>
			</trkpt>
			<trkpt lat="59.93759659546813" lon="30.30992187246399">
				<ele>3.987501109018922</ele>
				<time>2023-08-24T16:48:17Z</time>
			</trkpt>
			<trkpt lat="59.93761735544203" lon="30.309960899063356">
				<ele>3.043573991395533</ele>
				<time>2023-08-24T16:48:19Z</time>
			</trkpt>
			<trkpt lat="59.93763887203462" lon="30.30999430556942">
				<ele>2.9272306384518743</ele>
				<time>2023-08-24T16:48:21Z</time>
			</trkpt>
			<trkpt lat="59.93765414720525" lon="30.31003709340999">
				<ele>3.009819472208619</ele>
				<time>2023-08-24T16:48:23Z</time>
			</trkpt>
			<trkpt lat="59.937672301838056" lon="30.310079600132735">
				<ele>2.989525851793587</ele>
				<time>2023-08-24T16:48:25Z</time>
			</trkpt>
			<trkpt lat="59.9376829188986" lon="30.310112726933113">
				<ele>2.7579908464103937</ele>
				<time>2023-08-24T16:48:26Z</time>
			</trkpt>
			<trkpt lat="59.937694313741446" lon="30.310141855034516">
				<ele>3.299109979532659</ele>
				<time>2023-08-24T16:48:27Z</time>
			</trkpt>
			<trkpt lat="59.93771774845447" lon="30.310189468706646">
				<ele>4.281474434770644</ele>
				<time>2023-08-24T16:48:29Z</time>
			</trkpt>
			<trkpt lat="59.937720778396155" lon="30.310285582281235">
				<ele>3.2258883519098163</ele>
				<time>2023-08-24T16:48:31Z</time>
			</trkpt>
			<trkpt lat="59.9377028916132" lon="30.310362048589543">
				<ele>2.9201296623796225</ele>
				<time>2023-08-24T16:48:32Z</time>
			</trkpt>
			<trkpt lat="59.93770358923522" lon="30.3104122302452">
				<ele>3.285408278927207</ele>
				<time>2023-08-24T16:48:35Z</time>
			</trkpt>
			<trkpt lat="59.937722809695025" lon="30.310425520833313">
				<ele>4.179594952613115</ele>
				<time>2023-08-24T16:48:36Z</time>
			</trkpt>
			<trkpt lat="59.93774065580798" lon="30.310456586646943">
				<ele>5.743432521820068</ele>
				<time>2023-08-24T16:48:38Z</time>
			</trkpt>
			<trkpt lat="59.93776014727013" lon="30.310488414995728">
				<ele>4.881474414840341</ele>
				<time>2023-08-24T16:48:40Z</time>
			</trkpt>
			<trkpt lat="59.93778612390819" lon="30.31052964283429">
				<ele>4.2722769705578685</ele>
				<time>2023-08-24T16:48:42Z</time>
			</trkpt>
			<trkpt lat="59.93780203729022" lon="30.310562402818988">
				<ele>4.103146558627486</ele>
				<time>2023-08-24T16:48:44Z</time>
			</trkpt>
			<trkpt lat="59.93782563224369" lon="30.310601849498074">
				<ele>4.246042273007333</ele>
				<time>2023-08-24T16:48:46Z</time>
			</trkpt>
			<trkpt lat="59.937834214445026" lon="30.310634951544902">
				<ele>4.505858628079295</ele>
				<time>2023-08-24T16:48:47Z</time>
			</trkpt>
			<trkpt lat="59.937848477330064" lon="30.31067986490048">
				<ele>3.7504979837685823</ele>
				<time>2023-08-24T16:48:49Z</time>
			</trkpt>
			<trkpt lat="59.937860198645446" lon="30.31074371507669">
				<ele>3.9694560347124934</ele>
				<time>2023-08-24T16:48:51Z</time>
			</trkpt>
			<trkpt lat="59.93788005594796" lon="30.31078879366079">
				<ele>4.326078781858087</ele>
				<time>2023-08-24T16:48:53Z</time>
			</trkpt>
			<trkpt lat="59.93789394679569" lon="30.310827459173375">
				<ele>4.114606258459389</ele>
				<time>2023-08-24T16:48:55Z</time>
			</trkpt>
			<trkpt lat="59.93791637252565" lon="30.310867055779166">
				<ele>4.385830889455974</ele>
				<time>2023-08-24T16:48:57Z</time>
			</trkpt>
			<trkpt lat="59.937930835238376" lon="30.310906436832042">
				<ele>3.7354180719703436</ele>
				<time>2023-08-24T16:48:59Z</time>
			</trkpt>
			<trkpt lat="59.93794904485536" lon="30.310960368751083">
				<ele>2.7928354013711214</ele>
				<time>2023-08-24T16:49:01Z</time>
			</trkpt>
			<trkpt lat="59.937965965227605" lon="30.31101179020867">
				<ele>2.5372522613033652</ele>
				<time>2023-08-24T16:49:03Z</time>
			</trkpt>
			<trkpt lat="59.937987338110105" lon="30.311066431554003">
				<ele>2.6339932726696134</ele>
				<time>2023-08-24T16:49:05Z</time>
			</trkpt>
			<trkpt lat="59.938001698158224" lon="30.311093039835825">
				<ele>1.3282848820090294</ele>
				<time>2023-08-24T16:49:06Z</time>
			</trkpt>
			<trkpt lat="59.938014506543745" lon="30.311123034672267">
				<ele>2.0733043821528554</ele>
				<time>2023-08-24T16:49:07Z</time>
			</trkpt>
			<trkpt lat="59.93803065392652" lon="30.311164329052982">
				<ele>3.3577725421637297</ele>
				<time>2023-08-24T16:49:09Z</time>
			</trkpt>
			<trkpt lat="59.93806087593167" lon="30.311125243704065">
				<ele>3.6777635039761662</ele>
				<time>2023-08-24T16:49:10Z</time>
			</trkpt>
			<trkpt lat="59.938077881931676" lon="30.31117559263734">
				<ele>5.108939061872661</ele>
				<time>2023-08-24T16:49:12Z</time>
			</trkpt>
			<trkpt lat="59.93809594749626" lon="30.31122936254157">
				<ele>6.119649812579155</ele>
				<time>2023-08-24T16:49:14Z</time>
			</trkpt>
			<trkpt lat="59.93810619616373" lon="30.31126332074993">
				<ele>6.885008138604462</ele>
				<time>2023-08-24T16:49:15Z</time>
			</trkpt>
			<trkpt lat="59.938118108826124" lon="30.311292466991624">
				<ele>7.747399718500674</ele>
				<time>2023-08-24T16:49:16Z</time>
			</trkpt>
			<trkpt lat="59.93812607117267" lon="30.31132486928251">
				<ele>6.828402688726783</ele>
				<time>2023-08-24T16:49:18Z</time>
			</trkpt>
			<trkpt lat="59.938135632635266" lon="30.31136260339336">
				<ele>6.034751440398395</ele>
				<time>2023-08-24T16:49:20Z</time>
			</trkpt>
			<trkpt lat="59.93815442209129" lon="30.311397387702193">
				<ele>4.804379596374929</ele>
				<time>2023-08-24T16:49:22Z</time>
			</trkpt>
			<trkpt lat="59.93817202906005" lon="30.311432639278486">
				<ele>5.1603653421625495</ele>
				<time>2023-08-24T16:49:24Z</time>
			</trkpt>
			<trkpt lat="59.93819505320792" lon="30.3114727605124">
				<ele>5.38522488810122</ele>
				<time>2023-08-24T16:49:26Z</time>
			</trkpt>
			<trkpt lat="59.9382102104854" lon="30.31152386452299">
				<ele>5.694312420673668</ele>
				<time>2023-08-24T16:49:28Z</time>
			</trkpt>
			<trkpt lat="59.9382147345747" lon="30.311582938793507">
				<ele>5.898708970285952</ele>
				<time>2023-08-24T16:49:30Z</time>
			</trkpt>
			<trkpt lat="59.93822348912321" lon="30.311623738997213">
				<ele>5.526426464319229</ele>
				<time>2023-08-24T16:49:32Z</time>
			</trkpt>
			<trkpt lat="59.93824362234847" lon="30.311653120265703">
				<ele>5.904467901214957</ele>
				<time>2023-08-24T16:49:34Z</time>
			</trkpt>
			<trkpt lat="59.93826008952553" lon="30.311692948292933">
				<ele>6.9328247448429465</ele>
				<time>2023-08-24T16:49:36Z</time>
			</trkpt>
			<trkpt lat="59.93827443025099" lon="30.311756085155995">
				<ele>6.168638500384986</ele>
				<time>2023-08-24T16:49:38Z</time>
			</trkpt>
			<trkpt lat="59.93828459247855" lon="30.311787997444043">
				<ele>5.917247193865478</ele>
				<time>2023-08-24T16:49:39Z</time>
			</trkpt>
			<trkpt lat="59.93830228369612" lon="30.31185452811227">
				<ele>6.188488580286503</ele>
				<time>2023-08-24T16:49:41Z</time>
			</trkpt>
			<trkpt lat="59.93830577101812" lon="30.311894455099367">
				<ele>5.839034592732787</ele>
				<time>2023-08-24T16:49:42Z</time>
			</trkpt>
			<trkpt lat="59.938311587239944" lon="30.31193303826468">
				<ele>5.819040660746396</ele>
				<time>2023-08-24T16:49:43Z</time>
			</trkpt>
			<trkpt lat="59.93831848549733" lon="30.311971169610946">
				<ele>6.041494719684124</ele>
				<time>2023-08-24T16:49:44Z</time>
			</trkpt>
			<trkpt lat="59.93833512168067" lon="30.311995184161283">
				<ele>5.255132369697094</ele>
				<time>2023-08-24T16:49:47Z</time>
			</trkpt>
			<trkpt lat="59.938357200116855" lon="30.312003958010834">
				<ele>4.221553197130561</ele>
				<time>2023-08-24T16:49:51Z</time>
			</trkpt>
			<trkpt lat="59.93838366770473" lon="30.311939565404074">
				<ele>3.609991698525846</ele>
				<time>2023-08-24T16:49:55Z</time>
			</trkpt>
			<trkpt lat="59.93840493542547" lon="30.311910573492543">
				<ele>3.2951318100094795</ele>
				<time>2023-08-24T16:49:56Z</time>
			</trkpt>
			<trkpt lat="59.9384230991421" lon="30.311872948122932">
				<ele>3.6023977315053344</ele>
				<time>2023-08-24T16:49:57Z</time>
			</trkpt>
			<trkpt lat="59.938448677477645" lon="30.311831093381937">
				<ele>5.014608278870583</ele>
				<time>2023-08-24T16:49:58Z</time>
			</trkpt>
			<trkpt lat="59.93846939399713" lon="30.311820465714874">
				<ele>4.746602710336447</ele>
				<time>2023-08-24T16:50:00Z</time>
			</trkpt>
			<trkpt lat="59.938497136361754" lon="30.311807172905084">
				<ele>5.890457037836313</ele>
				<time>2023-08-24T16:50:02Z</time>
			</trkpt>
			<trkpt lat="59.93851456507293" lon="30.311792908653594">
				<ele>6.725837718695402</ele>
				<time>2023-08-24T16:50:03Z</time>
			</trkpt>
			<trkpt lat="59.93853056153313" lon="30.31176357964145">
				<ele>7.428698778152466</ele>
				<time>2023-08-24T16:50:04Z</time>
			</trkpt>
			<trkpt lat="59.93854447812698" lon="30.311736342930704">
				<ele>7.427628181874752</ele>
				<time>2023-08-24T16:50:05Z</time>
			</trkpt>
			<trkpt lat="59.93856942323424" lon="30.31169267275444">
				<ele>7.614739696495235</ele>
				<time>2023-08-24T16:50:07Z</time>
			</trkpt>
			<trkpt lat="59.938587065318856" lon="30.31167716661711">
				<ele>8.854484579525888</ele>
				<time>2023-08-24T16:50:08Z</time>
			</trkpt>
			<trkpt lat="59.93861380158498" lon="30.311647617429443">
				<ele>6.556047558784485</ele>
				<time>2023-08-24T16:50:10Z</time>
			</trkpt>
			<trkpt lat="59.93861805815901" lon="30.311603954273245">
				<ele>5.944319770671427</ele>
				<time>2023-08-24T16:50:12Z</time>
			</trkpt>
			<trkpt lat="59.93863751820287" lon="30.31158542245666">
				<ele>6.250983509235084</ele>
				<time>2023-08-24T16:50:14Z</time>
			</trkpt>
			<trkpt lat="59.93865783812679" lon="30.31154506769027">
				<ele>7.156181926839054</ele>
				<time>2023-08-24T16:50:16Z</time>
			</trkpt>
			<trkpt lat="59.938674975742856" lon="30.311525967462533">
				<ele>7.596522900275886</ele>
				<time>2023-08-24T16:50:17Z</time>
			</trkpt>
			<trkpt lat="59.93868786864929" lon="30.311498400792786">
				<ele>6.470836688764393</ele>
				<time>2023-08-24T16:50:18Z</time>
			</trkpt>
			<trkpt lat="59.93870477123366" lon="30.31146039784993">
				<ele>5.275282713584602</ele>
				<time>2023-08-24T16:50:20Z</time>
			</trkpt>
			<trkpt lat="59.938719857215766" lon="30.31143886373741">
				<ele>5.379171629436314</ele>
				<time>2023-08-24T16:50:21Z</time>
			</trkpt>
			<trkpt lat="59.93873416777466" lon="30.311412472557382">
				<ele>5.731254504062235</ele>
				<time>2023-08-24T16:50:22Z</time>
			</trkpt>
			<trkpt lat="59.93875580412156" lon="30.311396701201772">
				<ele>6.190105517394841</ele>
				<time>2023-08-24T16:50:23Z</time>
			</trkpt>
			<trkpt lat="59.938781065882864" lon="30.311374609118158">
				<ele>7.476539516821504</ele>
				<time>2023-08-24T16:50:24Z</time>
			</trkpt>
			<trkpt lat="59.938795173064634" lon="30.311347291350817">
				<ele>7.7212156765162945</ele>
				<time>2023-08-24T16:50:25Z</time>
			</trkpt>
			<trkpt lat="59.938822292973" lon="30.311285741970458">
				<ele>8.2856181031093</ele>
				<time>2023-08-24T16:50:27Z</time>
			</trkpt>
			<trkpt lat="59.93883444509231" lon="30.311257200147654">
				<ele>8.161918512545526</ele>
				<time>2023-08-24T16:50:28Z</time>
			</trkpt>
			<trkpt lat="59.938857557866996" lon="30.311244698204987">
				<ele>7.8475981298834085</ele>
				<time>2023-08-24T16:50:29Z</time>
			</trkpt>
			<trkpt lat="59.93887220854348" lon="30.31121083882991">
				<ele>7.157152411527932</ele>
				<time>2023-08-24T16:50:30Z</time>
			</trkpt>
			<trkpt lat="59.93888952203142" lon="30.31118294078706">
				<ele>7.560486689209938</ele>
				<time>2023-08-24T16:50:31Z</time>
			</trkpt>
			<trkpt lat="59.93890838682183" lon="30.311152274663062">
				<ele>8.521823818795383</ele>
				<time>2023-08-24T16:50:32Z</time>
			</trkpt>
			<trkpt lat="59.93892510536787" lon="30.311132664902246">
				<ele>8.389031729660928</ele>
				<time>2023-08-24T16:50:33Z</time>
			</trkpt>
			<trkpt lat="59.938940738451805" lon="30.311108855774535">
				<ele>7.992369235493243</ele>
				<time>2023-08-24T16:50:34Z</time>
			</trkpt>
			<trkpt lat="59.938963919794894" lon="30.311103827459174">
				<ele>8.25908734370023</ele>
				<time>2023-08-24T16:50:35Z</time>
			</trkpt>
			<trkpt lat="59.93898806624244" lon="30.311065338516787">
				<ele>8.601271531544626</ele>
				<time>2023-08-24T16:50:37Z</time>
			</trkpt>
			<trkpt lat="59.93900305909901" lon="30.311040180400006">
				<ele>9.833110964857042</ele>
				<time>2023-08-24T16:50:38Z</time>
			</trkpt>
			<trkpt lat="59.93901657389966" lon="30.311014574586927">
				<ele>8.645371385850012</ele>
				<time>2023-08-24T16:50:39Z</time>
			</trkpt>
			<trkpt lat="59.93903189746355" lon="30.310993325224622">
				<ele>7.844159003347158</ele>
				<time>2023-08-24T16:50:40Z</time>
			</trkpt>
			<trkpt lat="59.93903728687558" lon="30.31094159129099">
				<ele>8.96781398076564</ele>
				<time>2023-08-24T16:50:41Z</time>
			</trkpt>
			<trkpt lat="59.939058650693184" lon="30.31092616636096">
				<ele>9.491063745692372</ele>
				<time>2023-08-24T16:50:42Z</time>
			</trkpt>
			<trkpt lat="59.939077984931934" lon="30.310923256137805">
				<ele>7.979758618399501</ele>
				<time>2023-08-24T16:50:46Z</time>
			</trkpt>
			<trkpt lat="59.939091511202456" lon="30.310970135892198">
				<ele>7.335396880283952</ele>
				<time>2023-08-24T16:50:47Z</time>
			</trkpt>
			<trkpt lat="59.93911033875124" lon="30.310951159907944">
				<ele>8.584043553099036</ele>
				<time>2023-08-24T16:50:50Z</time>
			</trkpt>
			<trkpt lat="59.939120100865395" lon="30.31091853729924">
				<ele>9.84599677938968</ele>
				<time>2023-08-24T16:50:52Z</time>
			</trkpt>
			<trkpt lat="59.93913504060417" lon="30.310890252170616">
				<ele>11.082207707688212</ele>
				<time>2023-08-24T16:50:55Z</time>
			</trkpt>
			<trkpt lat="59.939142183156775" lon="30.31084613093803">
				<ele>9.279529483057559</ele>
				<time>2023-08-24T16:50:56Z</time>
			</trkpt>
			<trkpt lat="59.93915874907279" lon="30.310822301245164">
				<ele>9.99597099237144</ele>
				<time>2023-08-24T16:50:57Z</time>
			</trkpt>
			<trkpt lat="59.9391271446703" lon="30.310803373398027">
				<ele>8.166465156711638</ele>
				<time>2023-08-24T16:50:58Z</time>
			</trkpt>
			<trkpt lat="59.93913141578394" lon="30.31076633374334">
				<ele>8.71526251360774</ele>
				<time>2023-08-24T16:50:59Z</time>
			</trkpt>
			<trkpt lat="59.93915373455506" lon="30.310731919516247">
				<ele>9.300870103761554</ele>
				<time>2023-08-24T16:51:01Z</time>
			</trkpt>
			<trkpt lat="59.9391636007749" lon="30.31067876394977">
				<ele>7.790712305344641</ele>
				<time>2023-08-24T16:51:03Z</time>
			</trkpt>
			<trkpt lat="59.93918875884992" lon="30.31066558077846">
				<ele>8.480786541476846</ele>
				<time>2023-08-24T16:51:05Z</time>
			</trkpt>
			<trkpt lat="59.93920734948708" lon="30.31063447876742">
				<ele>9.78163001127541</ele>
				<time>2023-08-24T16:51:07Z</time>
			</trkpt>
			<trkpt lat="59.93924242754097" lon="30.310663920976953">
				<ele>11.36634693481028</ele>
				<time>2023-08-24T16:51:08Z</time>
			</trkpt>
			<trkpt lat="59.93926672113123" lon="30.310611647442435">
				<ele>9.398972728289664</ele>
				<time>2023-08-24T16:51:10Z</time>
			</trkpt>
			<trkpt lat="59.939291286785405" lon="30.310610462357577">
				<ele>9.817242295481265</ele>
				<time>2023-08-24T16:51:11Z</time>
			</trkpt>
			<trkpt lat="59.9393150004837" lon="30.31057350198069">
				<ele>8.436073963530362</ele>
				<time>2023-08-24T16:51:13Z</time>
			</trkpt>
			<trkpt lat="59.939344868718386" lon="30.310572766998312">
				<ele>9.450153924524784</ele>
				<time>2023-08-24T16:51:14Z</time>
			</trkpt>
			<trkpt lat="59.93935724360207" lon="30.3105458298565">
				<ele>9.640970820561051</ele>
				<time>2023-08-24T16:51:15Z</time>
			</trkpt>
			<trkpt lat="59.93937405179675" lon="30.310529975668974">
				<ele>10.940670548006892</ele>
				<time>2023-08-24T16:51:16Z</time>
			</trkpt>
			<trkpt lat="59.93940293376222" lon="30.310519731431786">
				<ele>8.912878632545471</ele>
				<time>2023-08-24T16:51:18Z</time>
			</trkpt>
			<trkpt lat="59.939419884016225" lon="30.310481216623582">
				<ele>8.713124725967646</ele>
				<time>2023-08-24T16:51:20Z</time>
			</trkpt>
			<trkpt lat="59.9394321844068" lon="30.31044347303639">
				<ele>9.761773977428675</ele>
				<time>2023-08-24T16:51:22Z</time>
			</trkpt>
			<trkpt lat="59.93947905662026" lon="30.31042363336139">
				<ele>11.094230836257339</ele>
				<time>2023-08-24T16:51:24Z</time>
			</trkpt>
			<trkpt lat="59.939497819897696" lon="30.310412705762378">
				<ele>10.703451263718307</ele>
				<time>2023-08-24T16:51:25Z</time>
			</trkpt>
			<trkpt lat="59.939516078851234" lon="30.310377396934616">
				<ele>11.76189324632287</ele>
				<time>2023-08-24T16:51:27Z</time>
			</trkpt>
			<trkpt lat="59.93954526619583" lon="30.310350866853597">
				<ele>10.839452519081533</ele>
				<time>2023-08-24T16:51:29Z</time>
			</trkpt>
			<trkpt lat="59.93955827026872" lon="30.31030619082048">
				<ele>10.653036900795996</ele>
				<time>2023-08-24T16:51:31Z</time>
			</trkpt>
			<trkpt lat="59.93957037833077" lon="30.31026021695455">
				<ele>10.582808234728873</ele>
				<time>2023-08-24T16:51:32Z</time>
			</trkpt>
			<trkpt lat="59.93957669835885" lon="30.31020454515222">
				<ele>8.873234921135008</ele>
				<time>2023-08-24T16:51:33Z</time>
			</trkpt>
			<trkpt lat="59.93958412026517" lon="30.310171720727435">
				<ele>9.104297108016908</ele>
				<time>2023-08-24T16:51:34Z</time>
			</trkpt>
			<trkpt lat="59.93960019591728" lon="30.31013923277018">
				<ele>9.594857294112444</ele>
				<time>2023-08-24T16:51:36Z</time>
			</trkpt>
			<trkpt lat="59.93961537284439" lon="30.310101604501384">
				<ele>9.157426829449832</ele>
				<time>2023-08-24T16:51:38Z</time>
			</trkpt>
			<trkpt lat="59.93962381115949" lon="30.310065698562923">
				<ele>6.243490188382566</ele>
				<time>2023-08-24T16:51:40Z</time>
			</trkpt>
			<trkpt lat="59.93963886378895" lon="30.31001170011896">
				<ele>6.870720081962645</ele>
				<time>2023-08-24T16:51:42Z</time>
			</trkpt>
			<trkpt lat="59.93965929438328" lon="30.310009424185413">
				<ele>8.38692579511553</ele>
				<time>2023-08-24T16:51:43Z</time>
			</trkpt>
			<trkpt lat="59.9396772564929" lon="30.3099710235786">
				<ele>8.80835423618555</ele>
				<time>2023-08-24T16:51:45Z</time>
			</trkpt>
			<trkpt lat="59.939695543292025" lon="30.309916041665968">
				<ele>10.178059296682477</ele>
				<time>2023-08-24T16:51:47Z</time>
			</trkpt>
			<trkpt lat="59.93970845990416" lon="30.309885604121337">
				<ele>10.722877847962081</ele>
				<time>2023-08-24T16:51:48Z</time>
			</trkpt>
			<trkpt lat="59.93972323863451" lon="30.309858400187863">
				<ele>11.199100512079895</ele>
				<time>2023-08-24T16:51:49Z</time>
			</trkpt>
			<trkpt lat="59.93974378061408" lon="30.309854810629485">
				<ele>11.481849341653287</ele>
				<time>2023-08-24T16:51:51Z</time>
			</trkpt>
			<trkpt lat="59.9397748926895" lon="30.30983453660111">
				<ele>11.711408825591207</ele>
				<time>2023-08-24T16:51:56Z</time>
			</trkpt>
			<trkpt lat="59.9397871236265" lon="30.309805445896398">
				<ele>11.881806189194322</ele>
				<time>2023-08-24T16:51:57Z</time>
			</trkpt>
			<trkpt lat="59.9398054613174" lon="30.309744518929065">
				<ele>9.614795747213066</ele>
				<time>2023-08-24T16:52:00Z</time>
			</trkpt>
			<trkpt lat="59.93981273327407" lon="30.309698558838356">
				<ele>9.051644384860992</ele>
				<time>2023-08-24T16:52:01Z</time>
			</trkpt>
			<trkpt lat="59.93982918050332" lon="30.309655638383315">
				<ele>10.699111905880272</ele>
				<time>2023-08-24T16:52:02Z</time>
			</trkpt>
			<trkpt lat="59.939845183818896" lon="30.309627556373627">
				<ele>12.60015761014074</ele>
				<time>2023-08-24T16:52:03Z</time>
			</trkpt>
			<trkpt lat="59.9398433072902" lon="30.309588384169693">
				<ele>10.189652464352548</ele>
				<time>2023-08-24T16:52:04Z</time>
			</trkpt>
			<trkpt lat="59.93983526959569" lon="30.309554244703172">
				<ele>10.170808501541615</ele>
				<time>2023-08-24T16:52:05Z</time>
			</trkpt>
			<trkpt lat="59.939833507403925" lon="30.30951709210229">
				<ele>9.931704303249717</ele>
				<time>2023-08-24T16:52:06Z</time>
			</trkpt>
			<trkpt lat="59.93984821762796" lon="30.309466261642246">
				<ele>9.979653219692409</ele>
				<time>2023-08-24T16:52:08Z</time>
			</trkpt>
			<trkpt lat="59.9398882317484" lon="30.30946592175759">
				<ele>8.628897278569639</ele>
				<time>2023-08-24T16:52:10Z</time>
			</trkpt>
			<trkpt lat="59.939909529998495" lon="30.30947500871666">
				<ele>8.93577765673399</ele>
				<time>2023-08-24T16:52:11Z</time>
			</trkpt>
			<trkpt lat="59.93992842465894" lon="30.309501852941356">
				<ele>9.488038839772344</ele>
				<time>2023-08-24T16:52:13Z</time>
			</trkpt>
			<trkpt lat="59.939950124739504" lon="30.30950190104492">
				<ele>9.695783473551273</ele>
				<time>2023-08-24T16:52:15Z</time>
			</trkpt>
			<trkpt lat="59.939969698072126" lon="30.309499300230318">
				<ele>10.27137515321374</ele>
				<time>2023-08-24T16:52:16Z</time>
			</trkpt>
			<trkpt lat="59.94000391344364" lon="30.309473970002855">
				<ele>10.959384310990572</ele>
				<time>2023-08-24T16:52:18Z</time>
			</trkpt>
			<trkpt lat="59.94002483879249" lon="30.309446896205664">
				<ele>9.982378584332764</ele>
				<time>2023-08-24T16:52:20Z</time>
			</trkpt>
			<trkpt lat="59.94005255763817" lon="30.309419851415">
				<ele>9.791133861988783</ele>
				<time>2023-08-24T16:52:23Z</time>
			</trkpt>
			<trkpt lat="59.94006606416787" lon="30.309383156031988">
				<ele>9.657250817865133</ele>
				<time>2023-08-24T16:52:25Z</time>
			</trkpt>
			<trkpt lat="59.94008464191598" lon="30.309362684566917">
				<ele>9.1522351289168</ele>
				<time>2023-08-24T16:52:27Z</time>
			</trkpt>
			<trkpt lat="59.940109475908024" lon="30.309352935846288">
				<ele>9.154911855235696</ele>
				<time>2023-08-24T16:52:29Z</time>
			</trkpt>
			<trkpt lat="59.940128253449316" lon="30.309320780368747">
				<ele>9.97475763130933</ele>
				<time>2023-08-24T16:52:31Z</time>
			</trkpt>
			<trkpt lat="59.94013378898336" lon="30.309278330515298">
				<ele>10.168319721706212</ele>
				<time>2023-08-24T16:52:34Z</time>
			</trkpt>
			<trkpt lat="59.94014873936207" lon="30.309298555090564">
				<ele>4.544352852739394</ele>
				<time>2023-08-24T16:52:41Z</time>
			</trkpt>
			<trkpt lat="59.94017762098254" lon="30.309280080221605">
				<ele>6.180312352254987</ele>
				<time>2023-08-24T16:52:43Z</time>
			</trkpt>
			<trkpt lat="59.94020628478904" lon="30.30927215632166">
				<ele>6.975587846711278</ele>
				<time>2023-08-24T16:52:45Z</time>
			</trkpt>
			<trkpt lat="59.94021516912775" lon="30.309238479350093">
				<ele>6.739753144793212</ele>
				<time>2023-08-24T16:52:47Z</time>
			</trkpt>
			<trkpt lat="59.940236693156315" lon="30.309203909669485">
				<ele>7.302796081639826</ele>
				<time>2023-08-24T16:52:49Z</time>
			</trkpt>
			<trkpt lat="59.9402650182048" lon="30.309180182475234">
				<ele>6.937322156503797</ele>
				<time>2023-08-24T16:52:51Z</time>
			</trkpt>
			<trkpt lat="59.94029467591487" lon="30.309156612319445">
				<ele>9.645712498575449</ele>
				<time>2023-08-24T16:52:53Z</time>
			</trkpt>
			<trkpt lat="59.940316223104105" lon="30.309125434003573">
				<ele>9.634299683384597</ele>
				<time>2023-08-24T16:52:55Z</time>
			</trkpt>
			<trkpt lat="59.94033676247622" lon="30.309089823717247">
				<ele>10.402378375642002</ele>
				<time>2023-08-24T16:52:57Z</time>
			</trkpt>
			<trkpt lat="59.94035356548594" lon="30.309061828071425">
				<ele>10.48792596720159</ele>
				<time>2023-08-24T16:52:59Z</time>
			</trkpt>
			<trkpt lat="59.94037957328971" lon="30.309040405541808">
				<ele>10.918818426318467</ele>
				<time>2023-08-24T16:53:01Z</time>
			</trkpt>
			<trkpt lat="59.9403954524219" lon="30.30900521690891">
				<ele>11.106344476342201</ele>
				<time>2023-08-24T16:53:03Z</time>
			</trkpt>
			<trkpt lat="59.94040797018808" lon="30.308968302153694">
				<ele>11.249171872623265</ele>
				<time>2023-08-24T16:53:05Z</time>
			</trkpt>
			<trkpt lat="59.94043516422913" lon="30.308940654080082">
				<ele>11.927811705507338</ele>
				<time>2023-08-24T16:53:07Z</time>
			</trkpt>
			<trkpt lat="59.94046509659353" lon="30.308909881098863">
				<ele>12.443010011687875</ele>
				<time>2023-08-24T16:53:10Z</time>
			</trkpt>
			<trkpt lat="59.940488732247" lon="30.30887963721334">
				<ele>13.980720224790275</ele>
				<time>2023-08-24T16:53:12Z</time>
			</trkpt>
			<trkpt lat="59.940499909464485" lon="30.30883636887495">
				<ele>13.380147777497768</ele>
				<time>2023-08-24T16:53:14Z</time>
			</trkpt>
			<trkpt lat="59.940518003452034" lon="30.308797186490978">
				<ele>13.658797792159021</ele>
				<time>2023-08-24T16:53:16Z</time>
			</trkpt>
			<trkpt lat="59.94053372324317" lon="30.30876816158593">
				<ele>12.927630331367254</ele>
				<time>2023-08-24T16:53:18Z</time>
			</trkpt>
			<trkpt lat="59.94056082938967" lon="30.308730573180668">
				<ele>14.516814276576042</ele>
				<time>2023-08-24T16:53:20Z</time>
			</trkpt>
			<trkpt lat="59.94057790370322" lon="30.308696333305804">
				<ele>12.818377057090402</ele>
				<time>2023-08-24T16:53:22Z</time>
			</trkpt>
			<trkpt lat="59.940592051023565" lon="30.30864836580695">
				<ele>11.845721455290914</ele>
				<time>2023-08-24T16:53:25Z</time>
			</trkpt>
			<trkpt lat="59.9406157489224" lon="30.308642714223932">
				<ele>12.508178194053471</ele>
				<time>2023-08-24T16:53:27Z</time>
			</trkpt>
			<trkpt lat="59.940638164290064" lon="30.30861261804868">
				<ele>11.99439743719995</ele>
				<time>2023-08-24T16:53:30Z</time>
			</trkpt>
			<trkpt lat="59.94066482975381" lon="30.30857848491472">
				<ele>12.911775971762836</ele>
				<time>2023-08-24T16:53:32Z</time>
			</trkpt>
			<trkpt lat="59.94067974716942" lon="30.30855464604875">
				<ele>13.642242019064724</ele>
				<time>2023-08-24T16:53:33Z</time>
			</trkpt>
			<trkpt lat="59.94069919649527" lon="30.30852994620413">
				<ele>13.123410049825907</ele>
				<time>2023-08-24T16:53:35Z</time>
			</trkpt>
			<trkpt lat="59.940712877886654" lon="30.30850403802167">
				<ele>12.28646634425968</ele>
				<time>2023-08-24T16:53:37Z</time>
			</trkpt>
			<trkpt lat="59.940730861501855" lon="30.308476935945926">
				<ele>13.064196690917015</ele>
				<time>2023-08-24T16:53:39Z</time>
			</trkpt>
			<trkpt lat="59.94075344251786" lon="30.308452186801123">
				<ele>13.555371674709022</ele>
				<time>2023-08-24T16:53:41Z</time>
			</trkpt>
			<trkpt lat="59.94077728793228" lon="30.30843032757644">
				<ele>13.954203050583601</ele>
				<time>2023-08-24T16:53:43Z</time>
			</trkpt>
			<trkpt lat="59.94080068429033" lon="30.308397134677968">
				<ele>14.507703863084316</ele>
				<time>2023-08-24T16:53:45Z</time>
			</trkpt>
			<trkpt lat="59.9408210548573" lon="30.308364076877815">
				<ele>14.728293155319989</ele>
				<time>2023-08-24T16:53:47Z</time>
			</trkpt>
			<trkpt lat="59.94084076780745" lon="30.30834777550341">
				<ele>15.089921306818724</ele>
				<time>2023-08-24T16:53:48Z</time>
			</trkpt>
			<trkpt lat="59.940859480802274" lon="30.30831786191816">
				<ele>15.186443568207324</ele>
				<time>2023-08-24T16:53:50Z</time>
			</trkpt>
			<trkpt lat="59.94087981062768" lon="30.30828355918103">
				<ele>15.762268542312086</ele>
				<time>2023-08-24T16:53:52Z</time>
			</trkpt>
			<trkpt lat="59.94089901694817" lon="30.308260554739004">
				<ele>15.769682955928147</ele>
				<time>2023-08-24T16:53:54Z</time>
			</trkpt>
			<trkpt lat="59.940912614125104" lon="30.308215957263045">
				<ele>14.422757535241544</ele>
				<time>2023-08-24T16:53:56Z</time>
			</trkpt>
			<trkpt lat="59.94093279304692" lon="30.308180769669516">
				<ele>13.62475320789963</ele>
				<time>2023-08-24T16:53:58Z</time>
			</trkpt>
			<trkpt lat="59.9409553138856" lon="30.3081548504244">
				<ele>13.238023813813925</ele>
				<time>2023-08-24T16:54:00Z</time>
			</trkpt>
			<trkpt lat="59.94097370453629" lon="30.308122402821038">
				<ele>12.899789002723992</ele>
				<time>2023-08-24T16:54:02Z</time>
			</trkpt>
			<trkpt lat="59.94099348782905" lon="30.308083186500156">
				<ele>12.304106737487018</ele>
				<time>2023-08-24T16:54:04Z</time>
			</trkpt>
			<trkpt lat="59.941009611191205" lon="30.30806167760362">
				<ele>12.639273525215685</ele>
				<time>2023-08-24T16:54:06Z</time>
			</trkpt>
			<trkpt lat="59.94102431603364" lon="30.308032182753305">
				<ele>12.8011340405792</ele>
				<time>2023-08-24T16:54:07Z</time>
			</trkpt>
			<trkpt lat="59.94104181500855" lon="30.308001180869187">
				<ele>12.459112538024783</ele>
				<time>2023-08-24T16:54:09Z</time>
			</trkpt>
			<trkpt lat="59.941067260976936" lon="30.30797512432617">
				<ele>12.477900643832982</ele>
				<time>2023-08-24T16:54:11Z</time>
			</trkpt>
			<trkpt lat="59.94107841738527" lon="30.307942735885614">
				<ele>12.344388798810542</ele>
				<time>2023-08-24T16:54:13Z</time>
			</trkpt>
			<trkpt lat="59.941103497649884" lon="30.307909902168475">
				<ele>12.225243330001831</ele>
				<time>2023-08-24T16:54:15Z</time>
			</trkpt>
			<trkpt lat="59.941128093001815" lon="30.307885616282746">
				<ele>11.765098450705409</ele>
				<time>2023-08-24T16:54:17Z</time>
			</trkpt>
			<trkpt lat="59.9411544858162" lon="30.307858917795222">
				<ele>11.625023305416107</ele>
				<time>2023-08-24T16:54:19Z</time>
			</trkpt>
			<trkpt lat="59.94117874724052" lon="30.30783182933059">
				<ele>11.458254103548825</ele>
				<time>2023-08-24T16:54:21Z</time>
			</trkpt>
			<trkpt lat="59.94119930805052" lon="30.307800080576587">
				<ele>11.025455511175096</ele>
				<time>2023-08-24T16:54:23Z</time>
			</trkpt>
			<trkpt lat="59.94121643498399" lon="30.307773971173702">
				<ele>10.90957140084356</ele>
				<time>2023-08-24T16:54:24Z</time>
			</trkpt>
			<trkpt lat="59.941234953898594" lon="30.30775038400253">
				<ele>11.150431156158447</ele>
				<time>2023-08-24T16:54:26Z</time>
			</trkpt>
			<trkpt lat="59.94125011183845" lon="30.30772733116984">
				<ele>10.704269113019109</ele>
				<time>2023-08-24T16:54:28Z</time>
			</trkpt>
			<trkpt lat="59.94127313602671" lon="30.307687122218283">
				<ele>11.30349518172443</ele>
				<time>2023-08-24T16:54:30Z</time>
			</trkpt>
			<trkpt lat="59.941286961870276" lon="30.30765924373879">
				<ele>11.308756191283464</ele>
				<time>2023-08-24T16:54:32Z</time>
			</trkpt>
			<trkpt lat="59.941312708026544" lon="30.3076238750776">
				<ele>10.322182655334473</ele>
				<time>2023-08-24T16:54:43Z</time>
			</trkpt>
			<trkpt lat="59.941337088919155" lon="30.307598033389123">
				<ele>10.051468323916197</ele>
				<time>2023-08-24T16:54:45Z</time>
			</trkpt>
			<trkpt lat="59.94136390077222" lon="30.307570096779077">
				<ele>10.173420755192637</ele>
				<time>2023-08-24T16:54:48Z</time>
			</trkpt>
			<trkpt lat="59.94138498684206" lon="30.3075381354161">
				<ele>9.941709890030324</ele>
				<time>2023-08-24T16:54:50Z</time>
			</trkpt>
			<trkpt lat="59.94140835286751" lon="30.307509542547535">
				<ele>10.490826228633523</ele>
				<time>2023-08-24T16:54:52Z</time>
			</trkpt>
			<trkpt lat="59.94143446278215" lon="30.30747482157603">
				<ele>10.624109364114702</ele>
				<time>2023-08-24T16:54:54Z</time>
			</trkpt>
			<trkpt lat="59.94145161380722" lon="30.307445310556805">
				<ele>9.956391240470111</ele>
				<time>2023-08-24T16:54:56Z</time>
			</trkpt>
			<trkpt lat="59.94147424882384" lon="30.30739922285709">
				<ele>10.892494421452284</ele>
				<time>2023-08-24T16:54:58Z</time>
			</trkpt>
			<trkpt lat="59.94149115488395" lon="30.307378403474996">
				<ele>11.369779641740024</ele>
				<time>2023-08-24T16:55:00Z</time>
			</trkpt>
			<trkpt lat="59.9415151928749" lon="30.307351457792514">
				<ele>12.125190454535186</ele>
				<time>2023-08-24T16:55:02Z</time>
			</trkpt>
			<trkpt lat="59.94153557285496" lon="30.3073145902313">
				<ele>12.492932355962694</ele>
				<time>2023-08-24T16:55:04Z</time>
			</trkpt>
			<trkpt lat="59.941559046866686" lon="30.307285755149568">
				<ele>11.997477295808494</ele>
				<time>2023-08-24T16:55:06Z</time>
			</trkpt>
			<trkpt lat="59.94158076759401" lon="30.307255483148566">
				<ele>11.673266709782183</ele>
				<time>2023-08-24T16:55:08Z</time>
			</trkpt>
			<trkpt lat="59.94160303230534" lon="30.307223351042104">
				<ele>11.443256463855505</ele>
				<time>2023-08-24T16:55:10Z</time>
			</trkpt>
			<trkpt lat="59.941622387580566" lon="30.307190984168283">
				<ele>12.671769697219133</ele>
				<time>2023-08-24T16:55:12Z</time>
			</trkpt>
			<trkpt lat="59.941644479374446" lon="30.307160650081926">
				<ele>11.029381757602096</ele>
				<time>2023-08-24T16:55:14Z</time>
			</trkpt>
			<trkpt lat="59.94166735128097" lon="30.307128408272114">
				<ele>10.45295347366482</ele>
				<time>2023-08-24T16:55:16Z</time>
			</trkpt>
			<trkpt lat="59.941687417422706" lon="30.307096520531942">
				<ele>10.2114742025733</ele>
				<time>2023-08-24T16:55:18Z</time>
			</trkpt>
			<trkpt lat="59.9417033246761" lon="30.307050894826485">
				<ele>10.630882114171982</ele>
				<time>2023-08-24T16:55:20Z</time>
			</trkpt>
			<trkpt lat="59.941725318031565" lon="30.30702349201828">
				<ele>12.005444562993944</ele>
				<time>2023-08-24T16:55:22Z</time>
			</trkpt>
			<trkpt lat="59.94172464931731" lon="30.30695153987118">
				<ele>11.035803072154522</ele>
				<time>2023-08-24T16:55:24Z</time>
			</trkpt>
			<trkpt lat="59.94174531414797" lon="30.30697024744609">
				<ele>10.678034618496895</ele>
				<time>2023-08-24T16:55:25Z</time>
			</trkpt>
			<trkpt lat="59.94177488471178" lon="30.306951177902427">
				<ele>10.330022404901683</ele>
				<time>2023-08-24T16:55:28Z</time>
			</trkpt>
			<trkpt lat="59.94179463602979" lon="30.30691940683301">
				<ele>10.704983135685325</ele>
				<time>2023-08-24T16:55:30Z</time>
			</trkpt>
			<trkpt lat="59.94181433675777" lon="30.306886798888875">
				<ele>10.608070010319352</ele>
				<time>2023-08-24T16:55:32Z</time>
			</trkpt>
			<trkpt lat="59.94183490018198" lon="30.306854158430426">
				<ele>9.92731746379286</ele>
				<time>2023-08-24T16:55:34Z</time>
			</trkpt>
			<trkpt lat="59.941856114765656" lon="30.306820602556975">
				<ele>9.344251783564687</ele>
				<time>2023-08-24T16:55:36Z</time>
			</trkpt>
			<trkpt lat="59.94187607913756" lon="30.30678534502777">
				<ele>9.177734229713678</ele>
				<time>2023-08-24T16:55:38Z</time>
			</trkpt>
			<trkpt lat="59.94189691471752" lon="30.306752308169393">
				<ele>9.47092688921839</ele>
				<time>2023-08-24T16:55:40Z</time>
			</trkpt>
			<trkpt lat="59.94192071929778" lon="30.306756198167463">
				<ele>9.440645040012896</ele>
				<time>2023-08-24T16:55:41Z</time>
			</trkpt>
			<trkpt lat="59.94192483221089" lon="30.30671095464014">
				<ele>9.643876072950661</ele>
				<time>2023-08-24T16:55:42Z</time>
			</trkpt>
			<trkpt lat="59.94194360251232" lon="30.306684583776605">
				<ele>8.884691953659058</ele>
				<time>2023-08-24T16:55:44Z</time>
			</trkpt>
			<trkpt lat="59.94196837183947" lon="30.306667457537223">
				<ele>9.173425410874188</ele>
				<time>2023-08-24T16:55:46Z</time>
			</trkpt>
			<trkpt lat="59.941987327960305" lon="30.306638191206034">
				<ele>8.861329273320735</ele>
				<time>2023-08-24T16:55:48Z</time>
			</trkpt>
			<trkpt lat="59.94200484209703" lon="30.30659796936728">
				<ele>8.836498634889722</ele>
				<time>2023-08-24T16:55:50Z</time>
			</trkpt>
			<trkpt lat="59.94202403200538" lon="30.306577172432615">
				<ele>7.687753105536103</ele>
				<time>2023-08-24T16:55:52Z</time>
			</trkpt>
			<trkpt lat="59.94204297338184" lon="30.306553751085183">
				<ele>8.485904752276838</ele>
				<time>2023-08-24T16:55:54Z</time>
			</trkpt>
			<trkpt lat="59.94204714858445" lon="30.306501465898677">
				<ele>8.23551005218178</ele>
				<time>2023-08-24T16:55:56Z</time>
			</trkpt>
			<trkpt lat="59.94205626927441" lon="30.30645732113319">
				<ele>8.332896422594786</ele>
				<time>2023-08-24T16:55:58Z</time>
			</trkpt>
			<trkpt lat="59.94203581659144" lon="30.306407912401596">
				<ele>7.397218209691346</ele>
				<time>2023-08-24T16:56:02Z</time>
			</trkpt>
			<trkpt lat="59.94201240092144" lon="30.30638050016201">
				<ele>7.771930835209787</ele>
				<time>2023-08-24T16:56:05Z</time>
			</trkpt>
			<trkpt lat="59.942000419552" lon="30.306340255731467">
				<ele>7.747087572701275</ele>
				<time>2023-08-24T16:56:09Z</time>
			</trkpt>
			<trkpt lat="59.94198831331521" lon="30.30627396525357">
				<ele>7.824241490103304</ele>
				<time>2023-08-24T16:56:11Z</time>
			</trkpt>
			<trkpt lat="59.941988711257686" lon="30.306217668998478">
				<ele>7.152357233688235</ele>
				<time>2023-08-24T16:56:13Z</time>
			</trkpt>
			<trkpt lat="59.94198005531316" lon="30.306175870452474">
				<ele>5.967874723486602</ele>
				<time>2023-08-24T16:56:15Z</time>
			</trkpt>
			<trkpt lat="59.9419707153918" lon="30.306127058877603">
				<ele>6.480728010646999</ele>
				<time>2023-08-24T16:56:17Z</time>
			</trkpt>
			<trkpt lat="59.941963429091174" lon="30.306087147166597">
				<ele>6.032274513505399</ele>
				<time>2023-08-24T16:56:19Z</time>
			</trkpt>
			<trkpt lat="59.94195295031192" lon="30.30605110814011">
				<ele>6.442733556963503</ele>
				<time>2023-08-24T16:56:21Z</time>
			</trkpt>
			<trkpt lat="59.941943102905164" lon="30.306018001407374">
				<ele>6.274722239933908</ele>
				<time>2023-08-24T16:56:23Z</time>
			</trkpt>
			<trkpt lat="59.94191956427296" lon="30.30599528149482">
				<ele>5.041298998519778</ele>
				<time>2023-08-24T16:56:26Z</time>
			</trkpt>
			<trkpt lat="59.94189748688185" lon="30.305974376311063">
				<ele>4.679679853841662</ele>
				<time>2023-08-24T16:56:29Z</time>
			</trkpt>
			<trkpt lat="59.94188599939931" lon="30.305940660814265">
				<ele>3.320986625738442</ele>
				<time>2023-08-24T16:56:32Z</time>
			</trkpt>
			<trkpt lat="59.94186705476661" lon="30.30592053433263">
				<ele>3.888127237558365</ele>
				<time>2023-08-24T16:56:48Z</time>
			</trkpt>
			<trkpt lat="59.94184897800371" lon="30.305910857073975">
				<ele>5.491092123091221</ele>
				<time>2023-08-24T16:56:57Z</time>
			</trkpt>
			<trkpt lat="59.941827866038004" lon="30.30587521236559">
				<ele>5.8003517575562</ele>
				<time>2023-08-24T16:57:37Z</time>
			</trkpt>
			<trkpt lat="59.94181638796605" lon="30.305832691933436">
				<ele>6.104235838167369</ele>
				<time>2023-08-24T16:57:38Z</time>
			</trkpt>
			<trkpt lat="59.94180808567996" lon="30.30577638256913">
				<ele>5.635251464322209</ele>
				<time>2023-08-24T16:57:40Z</time>
			</trkpt>
			<trkpt lat="59.941788067792714" lon="30.305735694738015">
				<ele>5.611865662969649</ele>
				<time>2023-08-24T16:57:43Z</time>
			</trkpt>
			<trkpt lat="59.94177494109998" lon="30.305707442882323">
				<ele>3.9261215729638934</ele>
				<time>2023-08-24T16:57:45Z</time>
			</trkpt>
			<trkpt lat="59.94176219031721" lon="30.30566924730685">
				<ele>4.214130904525518</ele>
				<time>2023-08-24T16:57:47Z</time>
			</trkpt>
			<trkpt lat="59.94174694263501" lon="30.305646207872403">
				<ele>3.941497754305601</ele>
				<time>2023-08-24T16:57:49Z</time>
			</trkpt>
			<trkpt lat="59.94172818365497" lon="30.30561511571938">
				<ele>2.9607001962140203</ele>
				<time>2023-08-24T16:57:51Z</time>
			</trkpt>
			<trkpt lat="59.94170759800347" lon="30.305575978253877">
				<ele>2.589063392020762</ele>
				<time>2023-08-24T16:57:53Z</time>
			</trkpt>
			<trkpt lat="59.941688304956386" lon="30.30553371739849">
				<ele>2.2119662277400494</ele>
				<time>2023-08-24T16:57:55Z</time>
			</trkpt>
			<trkpt lat="59.941666246710156" lon="30.305495417434166">
				<ele>2.0218381071463227</ele>
				<time>2023-08-24T16:57:57Z</time>
			</trkpt>
			<trkpt lat="59.94164950521012" lon="30.305459425756588">
				<ele>1.782098782248795</ele>
				<time>2023-08-24T16:57:59Z</time>
			</trkpt>
			<trkpt lat="59.94162748695704" lon="30.30541671011684">
				<ele>1.9845650466158986</ele>
				<time>2023-08-24T16:58:01Z</time>
			</trkpt>
			<trkpt lat="59.941607659917224" lon="30.30538291505047">
				<ele>1.5140693532302976</ele>
				<time>2023-08-24T16:58:03Z</time>
			</trkpt>
			<trkpt lat="59.9415942449162" lon="30.305353313701684">
				<ele>2.159771359525621</ele>
				<time>2023-08-24T16:58:05Z</time>
			</trkpt>
			<trkpt lat="59.94157424927885" lon="30.305305097453534">
				<ele>2.0261731911450624</ele>
				<time>2023-08-24T16:58:07Z</time>
			</trkpt>
			<trkpt lat="59.941558488494934" lon="30.305280949819938">
				<ele>1.971682927571237</ele>
				<time>2023-08-24T16:58:09Z</time>
			</trkpt>
			<trkpt lat="59.9415326640974" lon="30.305257392083004">
				<ele>1.6491095460951328</ele>
				<time>2023-08-24T16:58:11Z</time>
			</trkpt>
			<trkpt lat="59.94153280224833" lon="30.30521663146835">
				<ele>2.3551795687526464</ele>
				<time>2023-08-24T16:58:13Z</time>
			</trkpt>
			<trkpt lat="59.94151742327602" lon="30.305165340711877">
				<ele>3.1238515563309193</ele>
				<time>2023-08-24T16:58:20Z</time>
			</trkpt>
			<trkpt lat="59.94149278575105" lon="30.305126741396723">
				<ele>3.6258110385388136</ele>
				<time>2023-08-24T16:58:22Z</time>
			</trkpt>
			<trkpt lat="59.94147614720195" lon="30.305098802550187">
				<ele>3.998428731225431</ele>
				<time>2023-08-24T16:58:24Z</time>
			</trkpt>
			<trkpt lat="59.94145251234754" lon="30.30505883683651">
				<ele>3.4043097756803036</ele>
				<time>2023-08-24T16:58:26Z</time>
			</trkpt>
			<trkpt lat="59.94143467533068" lon="30.30503364912202">
				<ele>3.8178021907806396</ele>
				<time>2023-08-24T16:58:27Z</time>
			</trkpt>
			<trkpt lat="59.94140893390282" lon="30.304999176675672">
				<ele>3.480104715563357</ele>
				<time>2023-08-24T16:58:29Z</time>
			</trkpt>
			<trkpt lat="59.941386545321606" lon="30.304967050361324">
				<ele>3.0825125444680452</ele>
				<time>2023-08-24T16:58:31Z</time>
			</trkpt>
			<trkpt lat="59.94137104891398" lon="30.30493780217685">
				<ele>3.1153816180303693</ele>
				<time>2023-08-24T16:58:33Z</time>
			</trkpt>
			<trkpt lat="59.94135656931111" lon="30.304916322862383">
				<ele>3.7119726557284594</ele>
				<time>2023-08-24T16:58:34Z</time>
			</trkpt>
			<trkpt lat="59.94133540790516" lon="30.304879202492547">
				<ele>3.8663236936554313</ele>
				<time>2023-08-24T16:58:36Z</time>
			</trkpt>
			<trkpt lat="59.94131110169124" lon="30.304845987448722">
				<ele>4.756500157527626</ele>
				<time>2023-08-24T16:58:38Z</time>
			</trkpt>
			<trkpt lat="59.94128874719719" lon="30.304806340971854">
				<ele>4.341803920455277</ele>
				<time>2023-08-24T16:58:40Z</time>
			</trkpt>
			<trkpt lat="59.941266603577404" lon="30.304771417919632">
				<ele>4.958929067477584</ele>
				<time>2023-08-24T16:58:42Z</time>
			</trkpt>
			<trkpt lat="59.94124820542771" lon="30.304758407792804">
				<ele>5.312311369925737</ele>
				<time>2023-08-24T16:58:44Z</time>
			</trkpt>
			<trkpt lat="59.941229811601026" lon="30.304747207136813">
				<ele>5.000399570912123</ele>
				<time>2023-08-24T16:58:46Z</time>
			</trkpt>
			<trkpt lat="59.94120675978964" lon="30.30473183450826">
				<ele>5.626674829982221</ele>
				<time>2023-08-24T16:58:49Z</time>
			</trkpt>
			<trkpt lat="59.94118716096314" lon="30.304725640074434">
				<ele>6.484471196308732</ele>
				<time>2023-08-24T16:58:51Z</time>
			</trkpt>
			<trkpt lat="59.941167697612336" lon="30.304692620539864">
				<ele>5.783226925879717</ele>
				<time>2023-08-24T16:58:53Z</time>
			</trkpt>
			<trkpt lat="59.94113622204208" lon="30.304600415712283">
				<ele>5.577942496165633</ele>
				<time>2023-08-24T16:58:55Z</time>
			</trkpt>
			<trkpt lat="59.941124154867076" lon="30.304572187654866">
				<ele>5.537228378467262</ele>
				<time>2023-08-24T16:58:56Z</time>
			</trkpt>
			<trkpt lat="59.941112716164206" lon="30.30454405390809">
				<ele>4.953112349845469</ele>
				<time>2023-08-24T16:58:57Z</time>
			</trkpt>
			<trkpt lat="59.94109293623143" lon="30.304499171386844">
				<ele>3.5013791657984257</ele>
				<time>2023-08-24T16:58:59Z</time>
			</trkpt>
			<trkpt lat="59.941080533737924" lon="30.304472538145028">
				<ele>3.6289250180125237</ele>
				<time>2023-08-24T16:59:00Z</time>
			</trkpt>
			<trkpt lat="59.94105420234374" lon="30.30442834891613">
				<ele>3.926126467064023</ele>
				<time>2023-08-24T16:59:02Z</time>
			</trkpt>
			<trkpt lat="59.94102831300156" lon="30.304389003334727">
				<ele>3.5362783651798964</ele>
				<time>2023-08-24T16:59:04Z</time>
			</trkpt>
			<trkpt lat="59.94100710184997" lon="30.30434988222608">
				<ele>3.1549764750525355</ele>
				<time>2023-08-24T16:59:06Z</time>
			</trkpt>
			<trkpt lat="59.940985986720946" lon="30.30432709688345">
				<ele>4.014236957766116</ele>
				<time>2023-08-24T16:59:08Z</time>
			</trkpt>
			<trkpt lat="59.940958585965916" lon="30.304304429701002">
				<ele>4.4249390456825495</ele>
				<time>2023-08-24T16:59:10Z</time>
			</trkpt>
			<trkpt lat="59.94094249869077" lon="30.304251514327245">
				<ele>4.9382214061915874</ele>
				<time>2023-08-24T16:59:12Z</time>
			</trkpt>
		</trkseg>
	</trk>
</gpx>
