{
  "type": "Feature",
  "name": "Центр Санкт-Петербурга — территория проекта",
  "properties": {
    "name": "Центр Санкт-Петербурга — территория проекта",
    "method": "convex hull, clipped by OSM boundaries along the Neva, Bolshaya Nevka, Ekateringofka, and Obvodny Canal centerlines",
    "includes": [
      "Васильевский остров",
      "Крестовский остров",
      "Каменный остров",
      "Петроградский остров",
      "Аптекарский остров",
      "Елагин остров",
      "Монастырский остров",
      "основная часть центра до Обводного канала"
    ],
    "automatically_covered": [
      "Петровский остров"
    ],
    "source": "OpenStreetMap / Nominatim, updated 2026-08-01",
    "license": "ODbL 1.0",
    "excludes": [
      "Выборгская сторона",
      "Красногвардейский район east of the Neva",
      "land north of the Bolshaya Nevka",
      "Гутуевский остров west of the Ekateringofka",
      "land south of the Obvodny Canal"
    ]
  },
  "geometry": {
    "type": "Polygon",
    "coordinates": [
      [
        [
          30.3955251,
          59.9542061
        ],
        [
          30.3960525,
          59.9539453
        ],
        [
          30.3974621,
          59.9531607
        ],
        [
          30.3978635,
          59.9529299
        ],
        [
          30.3990202,
          59.9521819
        ],
        [
          30.3998099,
          59.9513179
        ],
        [
          30.4000924,
          59.95063
        ],
        [
          30.400197,
          59.9503621
        ],
        [
          30.4003337,
          59.9498786
        ],
        [
          30.4004362,
          59.9490293
        ],
        [
          30.4004372,
          59.9489457
        ],
        [
          30.3995691304701,
          59.9380090925944
        ],
        [
          30.3963299,
          59.933129
        ],
        [
          30.3942814,
          59.9290236
        ],
        [
          30.3959056,
          59.9257386
        ],
        [
          30.397196,
          59.9241878
        ],
        [
          30.39840404439678,
          59.92333044239566
        ],
        [
          30.3981303,
          59.9198816
        ],
        [
          30.3980916,
          59.919784
        ],
        [
          30.3980278,
          59.9197293
        ],
        [
          30.3977792,
          59.9196303
        ],
        [
          30.3969634,
          59.9193509
        ],
        [
          30.3928163,
          59.9183049
        ],
        [
          30.3925301,
          59.9182447
        ],
        [
          30.3922497,
          59.9181916
        ],
        [
          30.3750376,
          59.9150901
        ],
        [
          30.3725195,
          59.9146502
        ],
        [
          30.3694886,
          59.9142589
        ],
        [
          30.3674735772961,
          59.91403645306669
        ],
        [
          30.3633101,
          59.9138661
        ],
        [
          30.3629682,
          59.9138528
        ],
        [
          30.361785,
          59.9139263
        ],
        [
          30.3595359,
          59.9140347
        ],
        [
          30.3581723,
          59.9141463
        ],
        [
          30.3555462,
          59.9145026
        ],
        [
          30.3517753,
          59.9150878
        ],
        [
          30.3506317,
          59.9152374
        ],
        [
          30.3460156,
          59.9159832
        ],
        [
          30.345196,
          59.9160786
        ],
        [
          30.3443359,
          59.9161132
        ],
        [
          30.3424747,
          59.916066
        ],
        [
          30.3418712,
          59.9160478
        ],
        [
          30.3414458,
          59.9160183
        ],
        [
          30.3410438,
          59.9159652
        ],
        [
          30.3406742,
          59.9158919
        ],
        [
          30.3400813,
          59.9157427
        ],
        [
          30.3394124,
          59.9155243
        ],
        [
          30.3335212,
          59.9133749
        ],
        [
          30.3325755,
          59.9130514
        ],
        [
          30.3251527,
          59.9103327
        ],
        [
          30.3219272,
          59.9091448
        ],
        [
          30.3214638,
          59.9089747
        ],
        [
          30.3213796830006,
          59.90894795187493
        ],
        [
          30.3200132,
          59.9087971
        ],
        [
          30.3197584,
          59.9087701
        ],
        [
          30.3195077,
          59.9087498
        ],
        [
          30.3192555,
          59.90874
        ],
        [
          30.3190537,
          59.9087373
        ],
        [
          30.3180382,
          59.9087474
        ],
        [
          30.317988,
          59.9087479
        ],
        [
          30.3138961,
          59.9087928
        ],
        [
          30.2614358,
          59.9093771
        ],
        [
          30.2612253,
          59.9093979
        ],
        [
          30.2599408,
          59.9093491
        ],
        [
          30.2609047,
          59.9107547
        ],
        [
          30.2619127,
          59.912359
        ],
        [
          30.2622007,
          59.9136743
        ],
        [
          30.2621519,
          59.9158408
        ],
        [
          30.2620661,
          59.9164361
        ],
        [
          30.261523,
          59.9169571
        ],
        [
          30.2604927,
          59.9172603
        ],
        [
          30.1935628,
          59.931302
        ],
        [
          30.1922382,
          59.9318139
        ],
        [
          30.1911591,
          59.9323816
        ],
        [
          30.1902833,
          59.9331238
        ],
        [
          30.178113,
          59.9437734
        ],
        [
          30.1778187,
          59.9440582
        ],
        [
          30.1777884,
          59.9441321
        ],
        [
          30.1777808,
          59.9443928
        ],
        [
          30.183244,
          59.9536109
        ],
        [
          30.1833487,
          59.9537573
        ],
        [
          30.2116074,
          59.9755535
        ],
        [
          30.2120113,
          59.975798
        ],
        [
          30.2122625,
          59.9759407
        ],
        [
          30.2125658,
          59.9761053
        ],
        [
          30.2128706,
          59.9762493
        ],
        [
          30.2130585,
          59.9763311
        ],
        [
          30.2133595,
          59.9764602
        ],
        [
          30.2138749,
          59.9766438
        ],
        [
          30.2140953,
          59.9767148
        ],
        [
          30.2148395,
          59.9769402
        ],
        [
          30.2164958,
          59.977236
        ],
        [
          30.237196,
          59.9809183
        ],
        [
          30.2373605,
          59.9809386
        ],
        [
          30.2450093,
          59.9816624
        ],
        [
          30.2466614,
          59.9817862
        ],
        [
          30.252425,
          59.9820747
        ],
        [
          30.2613902,
          59.9823517
        ],
        [
          30.2620822,
          59.9823652
        ],
        [
          30.2627693,
          59.9823638
        ],
        [
          30.266490837215194,
          59.98231476065858
        ],
        [
          30.2685743,
          59.9819
        ],
        [
          30.2732069,
          59.9813446
        ],
        [
          30.2773486,
          59.9815368
        ],
        [
          30.281872606880402,
          59.98211207241158
        ],
        [
          30.2944377,
          59.9819465
        ],
        [
          30.2946683,
          59.9819385
        ],
        [
          30.2948856,
          59.9819278
        ],
        [
          30.2996564,
          59.9816547
        ],
        [
          30.3001897,
          59.9816104
        ],
        [
          30.301457,
          59.9814594
        ],
        [
          30.3019077,
          59.9813963
        ],
        [
          30.3178825,
          59.9786182
        ],
        [
          30.3188159,
          59.9784293
        ],
        [
          30.3192071,
          59.9783217
        ],
        [
          30.32725082558396,
          59.975823713799414
        ],
        [
          30.3281352,
          59.9752807
        ],
        [
          30.3300763,
          59.9736439
        ],
        [
          30.3318113,
          59.9715879
        ],
        [
          30.3347022,
          59.9674866
        ],
        [
          30.3349604,
          59.9671193
        ],
        [
          30.3359944,
          59.9651777
        ],
        [
          30.3367621,
          59.9604792
        ],
        [
          30.3377014,
          59.9573264
        ],
        [
          30.3392661,
          59.9554079
        ],
        [
          30.3402206,
          59.9546543
        ],
        [
          30.3423533,
          59.9535159
        ],
        [
          30.3454149,
          59.9522432
        ],
        [
          30.3454149,
          59.954148764313004
        ],
        [
          30.34575,
          59.9540938
        ],
        [
          30.3462322,
          59.9540054
        ],
        [
          30.3473555,
          59.9538163
        ],
        [
          30.3491707,
          59.9535032
        ],
        [
          30.3492103,
          59.953465
        ],
        [
          30.3498769,
          59.953359
        ],
        [
          30.3501991,
          59.9533192
        ],
        [
          30.3504624,
          59.9532959
        ],
        [
          30.3505299,
          59.9533236
        ],
        [
          30.3513396,
          59.9532622
        ],
        [
          30.352804,
          59.9531981
        ],
        [
          30.3535255,
          59.9531714
        ],
        [
          30.3537526,
          59.9531529
        ],
        [
          30.3537511,
          59.9531236
        ],
        [
          30.3537834,
          59.9530931
        ],
        [
          30.3538488,
          59.9530691
        ],
        [
          30.3539449,
          59.95306
        ],
        [
          30.3541758,
          59.9530383
        ],
        [
          30.3541691,
          59.9530167
        ],
        [
          30.3548855,
          59.9529414
        ],
        [
          30.3555906,
          59.9528672
        ],
        [
          30.3555992,
          59.9528892
        ],
        [
          30.3557113,
          59.9528778
        ],
        [
          30.355924,
          59.9528562
        ],
        [
          30.355987,
          59.9528629
        ],
        [
          30.3560368,
          59.9528804
        ],
        [
          30.3560719,
          59.9529112
        ],
        [
          30.3561185,
          59.9529059
        ],
        [
          30.3561358,
          59.9529357
        ],
        [
          30.3587292,
          59.9527455
        ],
        [
          30.3598484,
          59.9527107
        ],
        [
          30.359871,
          59.9526497
        ],
        [
          30.3598856,
          59.9526388
        ],
        [
          30.3599131,
          59.9526333
        ],
        [
          30.360848,
          59.9526078
        ],
        [
          30.3608748,
          59.9526121
        ],
        [
          30.3608898,
          59.9526247
        ],
        [
          30.3609217,
          59.9526704
        ],
        [
          30.3627868,
          59.952618
        ],
        [
          30.3636032,
          59.9526344
        ],
        [
          30.364198,
          59.9526708
        ],
        [
          30.3653227,
          59.9527792
        ],
        [
          30.3653379,
          59.9527376
        ],
        [
          30.3655555,
          59.9527589
        ],
        [
          30.3657878,
          59.9527816
        ],
        [
          30.365808,
          59.9527893
        ],
        [
          30.365817,
          59.9528011
        ],
        [
          30.365813,
          59.9528227
        ],
        [
          30.3666181,
          59.9528977
        ],
        [
          30.3673059,
          59.9529703
        ],
        [
          30.3679095,
          59.9530683
        ],
        [
          30.3684474,
          59.953173
        ],
        [
          30.3688708,
          59.9532645
        ],
        [
          30.3689012,
          59.953233
        ],
        [
          30.3691073,
          59.9532804
        ],
        [
          30.3693048,
          59.9533262
        ],
        [
          30.3693218,
          59.9533383
        ],
        [
          30.3693227,
          59.9533551
        ],
        [
          30.3693117,
          59.9533701
        ],
        [
          30.372072,
          59.9540345
        ],
        [
          30.3721007,
          59.9540076
        ],
        [
          30.372122,
          59.9540017
        ],
        [
          30.3721521,
          59.9540033
        ],
        [
          30.3723277,
          59.9540441
        ],
        [
          30.3725228,
          59.9540894
        ],
        [
          30.3727008,
          59.9541307
        ],
        [
          30.3727173,
          59.9541419
        ],
        [
          30.37272,
          59.9541568
        ],
        [
          30.3726998,
          59.9541801
        ],
        [
          30.3744949,
          59.954585
        ],
        [
          30.3749794,
          59.954734
        ],
        [
          30.3751667,
          59.9548013
        ],
        [
          30.3753567,
          59.9548856
        ],
        [
          30.3784221,
          59.9564779
        ],
        [
          30.3805464,
          59.9577196
        ],
        [
          30.380605,
          59.9576948
        ],
        [
          30.3807487,
          59.9577737
        ],
        [
          30.3808901,
          59.9578557
        ],
        [
          30.3809004,
          59.9578723
        ],
        [
          30.3808903,
          59.9578887
        ],
        [
          30.3808665,
          59.9578996
        ],
        [
          30.3814963,
          59.9582527
        ],
        [
          30.3818576,
          59.95846
        ],
        [
          30.3823293,
          59.9586872
        ],
        [
          30.38237451991719,
          59.95870500104218
        ],
        [
          30.3912114,
          59.9559607
        ],
        [
          30.3914295,
          59.9558803
        ],
        [
          30.3949397,
          59.9544645
        ],
        [
          30.3955251,
          59.9542061
        ]
      ]
    ]
  }
}

